CCSDS_OMM_VERS = 2.0
CREATION_DATE  = 
ORIGINATOR     = 

OBJECT_NAME    = ERS-1
OBJECT_ID      = 1991-050A
CENTER_NAME    = EARTH
REF_FRAME      = TEME
TIME_SYSTEM    = UTC
MEAN_ELEMENT_THEORY = SGP/SGP4

EPOCH          = 2026-04-01T06:55:07.943232
MEAN_MOTION    = 14.39466444
ECCENTRICITY   = .0032828
INCLINATION    = 98.7862
RA_OF_ASC_NODE = 110.0895
ARG_OF_PERICENTER = 133.9544
MEAN_ANOMALY   = 226.4359

EPHEMERIS_TYPE = 0
CLASSIFICATION_TYPE = U
NORAD_CAT_ID   = 21574
ELEMENT_SET_NO = 999
REV_AT_EPOCH   = 81898
BSTAR          = .12388E-3
MEAN_MOTION_DOT = .342E-5
MEAN_MOTION_DDOT = 0

CCSDS_OMM_VERS = 2.0
CREATION_DATE  = 
ORIGINATOR     = 

OBJECT_NAME    = ARIANE 40 R/B
OBJECT_ID      = 1991-050F
CENTER_NAME    = EARTH
REF_FRAME      = TEME
TIME_SYSTEM    = UTC
MEAN_ELEMENT_THEORY = SGP/SGP4

EPOCH          = 2026-04-01T10:10:48.130752
MEAN_MOTION    = 14.42910021
ECCENTRICITY   = .0003344
INCLINATION    = 98.1964
RA_OF_ASC_NODE = 142.8022
ARG_OF_PERICENTER = 29.1190
MEAN_ANOMALY   = 331.0187

EPHEMERIS_TYPE = 0
CLASSIFICATION_TYPE = U
NORAD_CAT_ID   = 21610
ELEMENT_SET_NO = 999
REV_AT_EPOCH   = 82227
BSTAR          = .11035E-3
MEAN_MOTION_DOT = .327E-5
MEAN_MOTION_DDOT = 0

CCSDS_OMM_VERS = 2.0
CREATION_DATE  = 
ORIGINATOR     = 

OBJECT_NAME    = INTERCOSMOS 25
OBJECT_ID      = 1991-086A
CENTER_NAME    = EARTH
REF_FRAME      = TEME
TIME_SYSTEM    = UTC
MEAN_ELEMENT_THEORY = SGP/SGP4

EPOCH          = 2026-04-01T00:39:50.333760
MEAN_MOTION    = 12.12076949
ECCENTRICITY   = .1486432
INCLINATION    = 82.6002
RA_OF_ASC_NODE = 296.5030
ARG_OF_PERICENTER = 68.8043
MEAN_ANOMALY   = 306.5090

EPHEMERIS_TYPE = 0
CLASSIFICATION_TYPE = U
NORAD_CAT_ID   = 21819
ELEMENT_SET_NO = 999
REV_AT_EPOCH   = 49939
BSTAR          = .43197E-3
MEAN_MOTION_DOT = .2235E-4
MEAN_MOTION_DDOT = 0

CCSDS_OMM_VERS = 2.0
CREATION_DATE  = 
ORIGINATOR     = 

OBJECT_NAME    = SL-8 R/B
OBJECT_ID      = 1992-008B
CENTER_NAME    = EARTH
REF_FRAME      = TEME
TIME_SYSTEM    = UTC
MEAN_ELEMENT_THEORY = SGP/SGP4

EPOCH          = 2026-04-01T09:40:29.789184
MEAN_MOTION    = 13.75969676
ECCENTRICITY   = .003588
INCLINATION    = 82.9238
RA_OF_ASC_NODE = 250.8775
ARG_OF_PERICENTER = 72.0986
MEAN_ANOMALY   = 317.3600

EPHEMERIS_TYPE = 0
CLASSIFICATION_TYPE = U
NORAD_CAT_ID   = 21876
ELEMENT_SET_NO = 999
REV_AT_EPOCH   = 71254
BSTAR          = -.711E-5
MEAN_MOTION_DOT = .9E-7
MEAN_MOTION_DDOT = 0

CCSDS_OMM_VERS = 2.0
CREATION_DATE  = 
ORIGINATOR     = 

OBJECT_NAME    = SL-8 R/B
OBJECT_ID      = 1992-020B
CENTER_NAME    = EARTH
REF_FRAME      = TEME
TIME_SYSTEM    = UTC
MEAN_ELEMENT_THEORY = SGP/SGP4

EPOCH          = 2026-04-01T05:49:47.246016
MEAN_MOTION    = 13.75550633
ECCENTRICITY   = .0027891
INCLINATION    = 82.9297
RA_OF_ASC_NODE = 137.0156
ARG_OF_PERICENTER = 232.9090
MEAN_ANOMALY   = 195.8132

EPHEMERIS_TYPE = 0
CLASSIFICATION_TYPE = U
NORAD_CAT_ID   = 21938
ELEMENT_SET_NO = 999
REV_AT_EPOCH   = 70423
BSTAR          = .2941E-4
MEAN_MOTION_DOT = .43E-6
MEAN_MOTION_DDOT = 0

CCSDS_OMM_VERS = 2.0
CREATION_DATE  = 
ORIGINATOR     = 

OBJECT_NAME    = USA 81
OBJECT_ID      = 1992-023A
CENTER_NAME    = EARTH
REF_FRAME      = TEME
TIME_SYSTEM    = UTC
MEAN_ELEMENT_THEORY = SGP/SGP4

EPOCH          = 2026-04-01T12:03:11.940192
MEAN_MOTION    = 14.32375438
ECCENTRICITY   = .0001629
INCLINATION    = 85.0042
RA_OF_ASC_NODE = 118.2752
ARG_OF_PERICENTER = 68.7839
MEAN_ANOMALY   = 291.3527

EPHEMERIS_TYPE = 0
CLASSIFICATION_TYPE = U
NORAD_CAT_ID   = 21949
ELEMENT_SET_NO = 999
REV_AT_EPOCH   = 9805
BSTAR          = .70578E-4
MEAN_MOTION_DOT = .211E-5
MEAN_MOTION_DDOT = 0

CCSDS_OMM_VERS = 2.0
CREATION_DATE  = 
ORIGINATOR     = 

OBJECT_NAME    = COSMOS 2219
OBJECT_ID      = 1992-076A
CENTER_NAME    = EARTH
REF_FRAME      = TEME
TIME_SYSTEM    = UTC
MEAN_ELEMENT_THEORY = SGP/SGP4

EPOCH          = 2026-04-01T03:46:19.796448
MEAN_MOTION    = 14.14089614
ECCENTRICITY   = .0017774
INCLINATION    = 71.0614
RA_OF_ASC_NODE = 331.1053
ARG_OF_PERICENTER = 173.5050
MEAN_ANOMALY   = 186.6307

EPHEMERIS_TYPE = 0
CLASSIFICATION_TYPE = U
NORAD_CAT_ID   = 22219
ELEMENT_SET_NO = 999
REV_AT_EPOCH   = 72155
BSTAR          = -.89199E-4
MEAN_MOTION_DOT = -.217E-5
MEAN_MOTION_DDOT = 0

CCSDS_OMM_VERS = 2.0
CREATION_DATE  = 
ORIGINATOR     = 

OBJECT_NAME    = SL-16 R/B
OBJECT_ID      = 1992-076B
CENTER_NAME    = EARTH
REF_FRAME      = TEME
TIME_SYSTEM    = UTC
MEAN_ELEMENT_THEORY = SGP/SGP4

EPOCH          = 2026-04-01T10:27:57.615264
MEAN_MOTION    = 14.16863109
ECCENTRICITY   = .0010803
INCLINATION    = 70.9990
RA_OF_ASC_NODE = 140.4624
ARG_OF_PERICENTER = 54.1935
MEAN_ANOMALY   = 39.7325

EPHEMERIS_TYPE = 0
CLASSIFICATION_TYPE = U
NORAD_CAT_ID   = 22220
ELEMENT_SET_NO = 999
REV_AT_EPOCH   = 72505
BSTAR          = -.73357E-4
MEAN_MOTION_DOT = -.195E-5
MEAN_MOTION_DDOT = 0

CCSDS_OMM_VERS = 2.0
CREATION_DATE  = 
ORIGINATOR     = 

OBJECT_NAME    = COSMOS 2221
OBJECT_ID      = 1992-080A
CENTER_NAME    = EARTH
REF_FRAME      = TEME
TIME_SYSTEM    = UTC
MEAN_ELEMENT_THEORY = SGP/SGP4

EPOCH          = 2026-04-01T04:11:16.943424
MEAN_MOTION    = 14.96296752
ECCENTRICITY   = .0015618
INCLINATION    = 82.5006
RA_OF_ASC_NODE = 257.5359
ARG_OF_PERICENTER = 115.1100
MEAN_ANOMALY   = 245.1745

EPHEMERIS_TYPE = 0
CLASSIFICATION_TYPE = U
NORAD_CAT_ID   = 22236
ELEMENT_SET_NO = 999
REV_AT_EPOCH   = 78415
BSTAR          = .18885E-3
MEAN_MOTION_DOT = .2164E-4
MEAN_MOTION_DDOT = 0

CCSDS_OMM_VERS = 2.0
CREATION_DATE  = 
ORIGINATOR     = 

OBJECT_NAME    = SL-16 R/B
OBJECT_ID      = 1992-093B
CENTER_NAME    = EARTH
REF_FRAME      = TEME
TIME_SYSTEM    = UTC
MEAN_ELEMENT_THEORY = SGP/SGP4

EPOCH          = 2026-04-01T01:42:34.556256
MEAN_MOTION    = 14.15455812
ECCENTRICITY   = .0006583
INCLINATION    = 71.0226
RA_OF_ASC_NODE = 317.2836
ARG_OF_PERICENTER = 272.1865
MEAN_ANOMALY   = 87.8504

EPHEMERIS_TYPE = 0
CLASSIFICATION_TYPE = U
NORAD_CAT_ID   = 22285
ELEMENT_SET_NO = 999
REV_AT_EPOCH   = 71632
BSTAR          = .56891E-4
MEAN_MOTION_DOT = .64E-6
MEAN_MOTION_DDOT = 0

CCSDS_OMM_VERS = 2.0
CREATION_DATE  = 
ORIGINATOR     = 

OBJECT_NAME    = COSMOS 2228
OBJECT_ID      = 1992-094A
CENTER_NAME    = EARTH
REF_FRAME      = TEME
TIME_SYSTEM    = UTC
MEAN_ELEMENT_THEORY = SGP/SGP4

EPOCH          = 2026-04-01T12:14:20.309856
MEAN_MOTION    = 14.97312418
ECCENTRICITY   = .0017085
INCLINATION    = 82.5194
RA_OF_ASC_NODE = 215.4609
ARG_OF_PERICENTER = 221.6480
MEAN_ANOMALY   = 138.3443

EPHEMERIS_TYPE = 0
CLASSIFICATION_TYPE = U
NORAD_CAT_ID   = 22286
ELEMENT_SET_NO = 999
REV_AT_EPOCH   = 77947
BSTAR          = .24594E-3
MEAN_MOTION_DOT = .2885E-4
MEAN_MOTION_DDOT = 0

CCSDS_OMM_VERS = 2.0
CREATION_DATE  = 
ORIGINATOR     = 

OBJECT_NAME    = SL-16 R/B
OBJECT_ID      = 1993-016B
CENTER_NAME    = EARTH
REF_FRAME      = TEME
TIME_SYSTEM    = UTC
MEAN_ELEMENT_THEORY = SGP/SGP4

EPOCH          = 2026-04-01T09:31:07.118688
MEAN_MOTION    = 14.15306538
ECCENTRICITY   = .001235
INCLINATION    = 71.0075
RA_OF_ASC_NODE = 167.4935
ARG_OF_PERICENTER = 284.9144
MEAN_ANOMALY   = 75.0611

EPHEMERIS_TYPE = 0
CLASSIFICATION_TYPE = U
NORAD_CAT_ID   = 22566
ELEMENT_SET_NO = 999
REV_AT_EPOCH   = 70538
BSTAR          = .12953E-3
MEAN_MOTION_DOT = .205E-5
MEAN_MOTION_DDOT = 0

